STARLINK-35764          
1 67109U 25299H   26008.25003472  .00092017  00000+0  21885-2 0  9993
2 67109  43.0004 157.1438 0001568 259.4542 115.0719 15.40632147  4962
STARLINK-35781          
1 67110U 25299J   26007.39119240  .00017425  00000+0  30969-3 0  9994
2 67110  42.9989 161.9098 0002324 326.7971  33.2743 15.49882893  3662
STARLINK-35875          
1 67111U 25299K   26008.29300062  .00133991  00000+0  22487-2 0  9991
2 67111  43.0004 156.6372 0001776 265.7342  94.3315 15.50606187  3804
STARLINK-35906          
1 67112U 25299L   26008.25003472 -.00068980  00000+0 -11799-2 0  9994
2 67112  43.0001 156.8763 0001735 267.8294 215.9604 15.50589155  4967
STARLINK-35789          
1 67113U 25299M   26008.25003472 -.02016361  00000+0 -45731-1 0  9995
2 67113  43.0001 156.8957 0001493 277.5263 198.7952 15.45713224  4962
STARLINK-36180          
1 67114U 25299N   26008.09838633  .00103620  00000+0  17467-2 0  9990
2 67114  42.9989 157.7546 0001431 278.7947  81.2751 15.50612173  3772
STARLINK-35892          
1 67115U 25299P   26008.25003472  .00072395  00000+0  17270-2 0  9990
2 67115  43.0002 157.0816 0001448 261.9239 137.4731 15.40645908  4965
STARLINK-35738          
1 67116U 25299Q   26008.25003472  .00063844  00000+0  15253-2 0  9999
2 67116  42.9999 156.9897 0001573 267.1530 169.5397 15.40652178  4968
STARLINK-35674          
1 67117U 25299R   26008.25003472  .00062932  00000+0  15041-2 0  9992
2 67117  43.0007 157.2019 0001884 271.0199  78.6145 15.40646031  4862
STARLINK-35701          
1 67118U 25299S   26008.09701024  .00076163  00000+0  12894-2 0  9997
2 67118  42.9999 157.7436 0002919 280.8451  79.2081 15.50622228  3776
STARLINK-36179          
1 67119U 25299T   26008.25003472  .00062897  00000+0  15031-2 0  9993
2 67119  43.0007 157.1705 0001570 267.3488  94.7195 15.40648283  5064
STARLINK-36217          
1 67120U 25299U   26008.09666930  .00117416  00000+0  19739-2 0  9998
2 67120  43.0002 157.7402 0002112 280.0957  79.9665 15.50627434  3776
STARLINK-36124          
1 67121U 25299V   26007.12944737  .00118144  00000+0  19921-2 0  9998
2 67121  42.9991 163.3817 0002545  10.5156 349.5757 15.50538893  3624
STARLINK-36188          
1 67122U 25299W   26008.25003472 -.00858612  00000+0 -21887-1 0  9992
2 67122  43.0000 156.8990 0002528 268.7613 205.0306 15.41208512  5061
STARLINK-36151          
1 67123U 25299X   26008.25003472  .00062895  00000+0  15028-2 0  9992
2 67123  43.0005 157.1113 0000996 258.1401 128.8068 15.40653610  5062
STARLINK-36195          
1 67124U 25299Y   26008.25003472  .00072590  00000+0  17307-2 0  9998
2 67124  43.0000 156.9598 0001159 279.1674 169.9207 15.40662269  5060
STARLINK-36219          
1 67125U 25299Z   26007.70814746  .00081577  00000+0  13881-2 0  9990
2 67125  43.0001 159.9826 0004926 131.9398 228.1883 15.50442205  3717
STARLINK-36223          
1 67126U 25299AA  26007.70778066  .00078444  00000+0  13282-2 0  9999
2 67126  43.0004 159.9800 0001921 265.2430  94.8211 15.50607082  3712
STARLINK-36164          
1 67127U 25299AB  26007.70743749  .00103730  00000+0  17498-2 0  9990
2 67127  43.0002 159.9775 0001506 265.6144  94.4544 15.50592128  3716
STARLINK-35685          
1 67128U 25299AC  26008.25003472  .00092234  00000+0  21883-2 0  9993
2 67128  43.0002 157.0478 0002249 288.8284 122.9579 15.40704370  5072
STARLINK-36214          
1 67129U 25299AD  26007.70709438  .00094313  00000+0  15917-2 0  9999
2 67129  43.0006 159.9741 0001560 260.8760  99.1923 15.50621538  3717
STARLINK-36194          
1 67130U 25299AE  26007.70641266  .00106350  00000+0  17929-2 0  9995
2 67130  42.9999 159.9704 0003473 262.6217  97.4249 15.50593986  3716
ZIYUAN 3-04 (ZY 3-04)   
1 67131U 25300A   26007.93288203  .00001658  00000+0  76926-4 0  9991
2 67131  97.4896  86.9084 0004017 124.0140 236.1477 15.21443300  3479
CZ-4B R/B               
1 67132U 25300B   25365.84118213  .00055316  31762-5  24195-3 0  9996
2 67132  97.5610  81.0876 0162680 319.8916  39.0424 15.67589119  2465
KUIPER-00144            
1 67133U 25301A   26008.32367814  .00051493  00000+0  14468-2 0  9997
2 67133  51.8704 356.9181 0006215 156.3439 203.7834 15.36002885  4453
KUIPER-00164            
1 67134U 25301B   26008.24861872  .00023321  00000+0  65260-3 0  9998
2 67134  51.8724 357.1692 0002833 138.0222 222.0982 15.36537900  4623
KUIPER-00175            
1 67135U 25301C   26008.24113996  .00031214  00000+0  85200-3 0  9992
2 67135  51.8745 357.1161 0002899  93.9399 266.1920 15.37150647  4513
KUIPER-00179            
1 67136U 25301D   26008.24649747  .00028271  00000+0  78398-3 0  9990
2 67136  51.8739 357.1534 0003419 119.1435 240.9894 15.36708924  4620
KUIPER-00181            
1 67137U 25301E   26008.27440607  .00003720  00000+0  11977-3 0  9990
2 67137  51.8655 357.3258 0009744 184.8824 175.2068 15.34758536  4604
KUIPER-00183            
1 67138U 25301F   26008.27889173  .00020211  00000+0  60097-3 0  9997
2 67138  51.8635 357.3504 0011162 186.9582 173.1250 15.34671242  4617
KUIPER-00184            
1 67139U 25301G   26008.27350375  .00019197  00000+0  56745-3 0  9991
2 67139  51.8643 357.3181 0009324 184.7640 175.3259 15.34912429  4726
KUIPER-00186            
1 67140U 25301H   26008.26424782  .00025505  00000+0  73084-3 0  9991
2 67140  51.8691 357.2664 0007895 169.8488 190.2659 15.35721145  4444
KUIPER-00187            
1 67141U 25301J   26008.25307951 -.00025615  00000+0 -70574-3 0  9994
2 67141  51.8712 357.1974 0005369 155.5993 204.5249 15.36222768  4441
KUIPER-00188            
1 67142U 25301K   26008.26572605  .00016643  00000+0  48354-3 0  9996
2 67142  51.8705 357.2773 0007586 175.6331 184.4723 15.35573402  4440
KUIPER-00191            
1 67143U 25301L   26008.26283361  .00025478  00000+0  72993-3 0  9997
2 67143  51.8680 357.2565 0006601 168.9967 191.1165 15.35735101  4473
KUIPER-00196            
1 67144U 25301M   26008.25031984  .00031528  00000+0  87881-3 0  9994
2 67144  51.8730 357.1793 0003901 132.3756 227.7562 15.36490755  4441
KUIPER-00204            
1 67145U 25301N   26008.25003472 -.00581265  00000+0 -20885-1 0  9995
2 67145  51.8775 357.2059 0005126 104.1739 226.7756 15.30231225  4551
KUIPER-00210            
1 67146U 25301P   26008.27750568  .00023143  00000+0  68528-3 0  9995
2 67146  51.8618 357.3399 0010438 191.7005 168.3739 15.34724336  4619
KUIPER-00221            
1 67147U 25301Q   26008.25455640  .00018357  00000+0  52124-3 0  9993
2 67147  51.8719 357.2069 0005000 151.6369 208.4890 15.36234817  4449
KUIPER-00232            
1 67148U 25301R   26008.24020441  .00031233  00000+0  85349-3 0  9993
2 67148  51.8744 357.1120 0002324  83.6886 276.4365 15.37116304  4442
KUIPER-00241            
1 67149U 25301S   26008.24691499  .00018934  00000+0  52930-3 0  9994
2 67149  51.8741 357.1548 0002840 127.2673 232.8573 15.36706035  4774
KUIPER-00245            
1 67150U 25301T   26008.25003472 -.00674794  00000+0 -23989-1 0  9999
2 67150  51.8748 357.3161 0007294 162.6158 119.1800 15.30888287  3925
KUIPER-00246            
1 67151U 25301U   26008.25118146  .00018881  00000+0  53224-3 0  9999
2 67151  51.8734 357.1842 0004015 149.9889 210.1328 15.36445549  4465
KUIPER-00247            
1 67152U 25301V   26008.28062250  .00023762  00000+0  70958-3 0  9994
2 67152  51.8650 357.3647 0011153 193.4871 166.5818 15.34434766  4447
KUIPER-00248            
1 67153U 25301W   26008.26975563  .00024942  00000+0  72715-3 0  9997
2 67153  51.8689 357.3011 0008421 178.3819 181.7195 15.35187449  4613
KUIPER-00249            
1 67154U 25301X   26008.26709566  .00025321  00000+0  72969-3 0  9999
2 67154  51.8663 357.2817 0008448 177.2166 182.8868 15.35542301  4443
KUIPER-00250            
1 67155U 25301Y   26008.25942225  .00025638  00000+0  72698-3 0  9990
2 67155  51.8718 357.2380 0006644 166.4240 193.6926 15.36054168  4477
KUIPER-00251            
1 67156U 25301Z   26008.26919643  .00018794  00000+0  55165-3 0  9995
2 67156  51.8676 357.2959 0008997 175.0904 185.0171 15.35150846  4633
KUIPER-00252            
1 67157U 25301AA  26008.27623171  .00018220  00000+0  54072-3 0  9995
2 67157  51.8673 357.3398 0009796 187.6363 172.4475 15.34819445  4447
KUIPER-00261            
1 67158U 25301AB  26008.32364852  .00009151  00000+0  26711-3 0  9992
2 67158  51.8701 356.9179 0006621 163.1022 197.0186 15.36047823  4455
KUIPER-00265            
1 67159U 25301AC  26008.25003472 -.01117241  00000+0 -40907-1 0  9997
2 67159  51.8769 357.2751 0001285 118.5761 203.4440 15.30484349  4474
GALILEO 33              
1 67160U 25302A   25352.14605887 -.00000007  00000+0  00000+0 0  9994
2 67160  54.2406 107.2544 0008423 237.6458 122.2317  1.72906186    28
GALILEO B               
1 67161U 25302B   26007.95780000 -.00000021  00000+0  00000+0 0  9999
2 67161  54.2395 106.6121 0005078 260.5272  99.4223  1.72972217   391
GALILEO 33 (139)        
1 67162U 25302C   25356.18244914  .00000006  00000+0  00000+0 0  9992
2 67162  54.2447 107.1379 0000312 196.8367 159.4994  1.73130437   127
STARLINK-35755          
1 67163U 25303A   25351.60835648 -.00002699  85337-5  00000+0 0  9999
2 67163  43.0100  69.0834 0011500 323.6500   9.4800 16.01284782    10
STARLINK-36201          
1 67164U 25303B   25351.60835648 -.00002699  85337-5  00000+0 0  9990
2 67164  43.0100  69.0834 0011500 323.6500   9.4800 16.01284782    11
STARLINK-36186          
1 67165U 25303C   25351.60835648 -.00002699  85337-5  00000+0 0  9991
2 67165  43.0100  69.0834 0011500 323.6500   9.4800 16.01284782    12
STARLINK-36174          
1 67166U 25303D   25351.60835648 -.00002699  85337-5  00000+0 0  9992
2 67166  43.0100  69.0834 0011500 323.6500   9.4800 16.01284782    13
STARLINK-36198          
1 67167U 25303E   25351.60835648 -.00002699  85337-5  00000+0 0  9993
2 67167  43.0100  69.0834 0011500 323.6500   9.4800 16.01284782    14
